SL-16 R/B               
1 22566U 93016B   25344.51412915 -.00000131  00000+0 -43065-4 0  9994
2 22566  71.0086  42.4785 0007839 101.7988 258.4015 14.15287115689559
COSMOS 2242             
1 22626U 93024A   25344.96370163  .00003426  00000+0  30200-3 0  9991
2 22626  82.5191 351.5422 0014880 240.7447 119.2287 14.96094087767128
SL-16 R/B               
1 22803U 93059B   25344.89699280 -.00000047  00000+0  50644-6 0  9996
2 22803  70.9895 198.3724 0017906 338.2294  21.8067 14.17213645666953
ARIANE 40 R/B           
1 22830U 93061H   25344.66292728  .00000451  00000+0  18109-3 0  9995
2 22830  98.5079  50.2307 0010753 182.0753 178.0388 14.32799431681355
COSMOS 2278             
1 23087U 94023A   25344.48487185 -.00000147  00000+0 -52233-4 0  9993
2 23087  71.0544   1.7288 0008434 183.3840 176.7227 14.14350875632196
SL-16 R/B               
1 23088U 94023B   25344.71343259  .00000129  00000+0  91477-4 0  9994
2 23088  71.0009 257.7409 0001257  34.3201 325.8003 14.15002569633503
SL-16 R/B               
1 23343U 94074B   25344.86956831  .00000766  00000+0  10958-3 0  9997
2 23343  97.7204  14.2485 0007438 141.0473  32.0355 14.79286192674118
SL-16 R/B               
1 23405U 94077B   25344.80040443  .00000292  00000+0  17394-3 0  9991
2 23405  70.9811 179.4937 0004618 285.4959  74.5653 14.15548464603655
ARIANE 40+ R/B          
1 23561U 95021B   25344.95114145  .00000505  00000+0  17521-3 0  9990
2 23561  98.4653  52.5615 0007557  54.7156 118.0015 14.39693342606473
SL-16 R/B               
1 23705U 95058B   25344.80299530  .00000147  00000+0  99505-4 0  9991
2 23705  71.0225   6.8707 0014963 257.7684 102.1763 14.15483518555270
SL-16 R/B               
1 24298U 96051B   25344.78888801  .00000029  00000+0  42547-4 0  9998
2 24298  70.7594   3.4135 0019363 263.7302  96.1612 14.12396355509097
ORBVIEW 2 (SEASTAR)     
1 24883U 97037A   25344.68471673  .00000548  00000+0  20694-3 0  9991
2 24883  98.8456 141.7075 0001748 348.8403  11.2742 14.35414859495708
